CCSDS_OMM_VERS = 2.0
CREATION_DATE  = 
ORIGINATOR     = 

OBJECT_NAME    = DELTA 2 R/B(1)
OBJECT_ID      = 1990-008B
CENTER_NAME    = EARTH
REF_FRAME      = TEME
TIME_SYSTEM    = UTC
MEAN_ELEMENT_THEORY = SGP/SGP4

EPOCH          = 2025-12-08T13:13:03.505728
MEAN_MOTION    = 15.44741263
ECCENTRICITY   = .0111717
INCLINATION    = 35.6070
RA_OF_ASC_NODE = 47.5750
ARG_OF_PERICENTER = 140.3529
MEAN_ANOMALY   = 220.5435

EPHEMERIS_TYPE = 0
CLASSIFICATION_TYPE = U
NORAD_CAT_ID   = 20453
ELEMENT_SET_NO = 999
REV_AT_EPOCH   = 91198
BSTAR          = .88443E-3
MEAN_MOTION_DOT = .5443E-3
MEAN_MOTION_DDOT = 0

CCSDS_OMM_VERS = 2.0
CREATION_DATE  = 
ORIGINATOR     = 

OBJECT_NAME    = COSMOS 2058
OBJECT_ID      = 1990-010A
CENTER_NAME    = EARTH
REF_FRAME      = TEME
TIME_SYSTEM    = UTC
MEAN_ELEMENT_THEORY = SGP/SGP4

EPOCH          = 2025-12-08T20:23:02.135328
MEAN_MOTION    = 15.10412767
ECCENTRICITY   = .0008252
INCLINATION    = 82.4654
RA_OF_ASC_NODE = 136.8573
ARG_OF_PERICENTER = 289.7308
MEAN_ANOMALY   = 70.3031

EPHEMERIS_TYPE = 0
CLASSIFICATION_TYPE = U
NORAD_CAT_ID   = 20465
ELEMENT_SET_NO = 999
REV_AT_EPOCH   = 92852
BSTAR          = .47611E-3
MEAN_MOTION_DOT = .7856E-4
MEAN_MOTION_DDOT = 0

CCSDS_OMM_VERS = 2.0
CREATION_DATE  = 
ORIGINATOR     = 

OBJECT_NAME    = SL-14 R/B
OBJECT_ID      = 1990-010B
CENTER_NAME    = EARTH
REF_FRAME      = TEME
TIME_SYSTEM    = UTC
MEAN_ELEMENT_THEORY = SGP/SGP4

EPOCH          = 2025-12-08T18:22:46.765920
MEAN_MOTION    = 14.83466279
ECCENTRICITY   = .0018487
INCLINATION    = 82.5019
RA_OF_ASC_NODE = 352.7796
ARG_OF_PERICENTER = 237.0625
MEAN_ANOMALY   = 122.8812

EPHEMERIS_TYPE = 0
CLASSIFICATION_TYPE = U
NORAD_CAT_ID   = 20466
ELEMENT_SET_NO = 999
REV_AT_EPOCH   = 91500
BSTAR          = .10318E-3
MEAN_MOTION_DOT = .873E-5
MEAN_MOTION_DDOT = 0

CCSDS_OMM_VERS = 2.0
CREATION_DATE  = 
ORIGINATOR     = 

OBJECT_NAME    = SL-14 R/B
OBJECT_ID      = 1990-018B
CENTER_NAME    = EARTH
REF_FRAME      = TEME
TIME_SYSTEM    = UTC
MEAN_ELEMENT_THEORY = SGP/SGP4

EPOCH          = 2025-12-08T15:05:21.893568
MEAN_MOTION    = 14.82040471
ECCENTRICITY   = .0017338
INCLINATION    = 82.5206
RA_OF_ASC_NODE = 308.2071
ARG_OF_PERICENTER = 36.2844
MEAN_ANOMALY   = 323.9542

EPHEMERIS_TYPE = 0
CLASSIFICATION_TYPE = U
NORAD_CAT_ID   = 20511
ELEMENT_SET_NO = 999
REV_AT_EPOCH   = 90909
BSTAR          = .12224E-3
MEAN_MOTION_DOT = .996E-5
MEAN_MOTION_DDOT = 0

CCSDS_OMM_VERS = 2.0
CREATION_DATE  = 
ORIGINATOR     = 

OBJECT_NAME    = HST
OBJECT_ID      = 1990-037B
CENTER_NAME    = EARTH
REF_FRAME      = TEME
TIME_SYSTEM    = UTC
MEAN_ELEMENT_THEORY = SGP/SGP4

EPOCH          = 2025-12-08T06:51:05.840928
MEAN_MOTION    = 15.27955239
ECCENTRICITY   = .00018952
INCLINATION    = 28.4697
RA_OF_ASC_NODE = 302.8053
ARG_OF_PERICENTER = 185.8337
MEAN_ANOMALY   = 174.2236

EPHEMERIS_TYPE = 0
CLASSIFICATION_TYPE = U
NORAD_CAT_ID   = 20580
ELEMENT_SET_NO = 999
REV_AT_EPOCH   = 75931
BSTAR          = .34811453E-3
MEAN_MOTION_DOT = .10003E-3
MEAN_MOTION_DDOT = 0

CCSDS_OMM_VERS = 2.0
CREATION_DATE  = 
ORIGINATOR     = 

OBJECT_NAME    = SL-16 R/B
OBJECT_ID      = 1990-046B
CENTER_NAME    = EARTH
REF_FRAME      = TEME
TIME_SYSTEM    = UTC
MEAN_ELEMENT_THEORY = SGP/SGP4

EPOCH          = 2025-12-08T18:53:28.508064
MEAN_MOTION    = 14.15001111
ECCENTRICITY   = .0011858
INCLINATION    = 70.9987
RA_OF_ASC_NODE = 128.8220
ARG_OF_PERICENTER = 80.6549
MEAN_ANOMALY   = 279.5913

EPHEMERIS_TYPE = 0
CLASSIFICATION_TYPE = U
NORAD_CAT_ID   = 20625
ELEMENT_SET_NO = 999
REV_AT_EPOCH   = 83553
BSTAR          = .81186E-4
MEAN_MOTION_DOT = .11E-5
MEAN_MOTION_DDOT = 0

CCSDS_OMM_VERS = 2.0
CREATION_DATE  = 
ORIGINATOR     = 

OBJECT_NAME    = COSMOS 2084
OBJECT_ID      = 1990-055A
CENTER_NAME    = EARTH
REF_FRAME      = TEME
TIME_SYSTEM    = UTC
MEAN_ELEMENT_THEORY = SGP/SGP4

EPOCH          = 2025-12-08T20:19:59.644704
MEAN_MOTION    = 15.04982052
ECCENTRICITY   = .0032365
INCLINATION    = 62.7911
RA_OF_ASC_NODE = 285.2559
ARG_OF_PERICENTER = 174.2415
MEAN_ANOMALY   = 185.9064

EPHEMERIS_TYPE = 0
CLASSIFICATION_TYPE = U
NORAD_CAT_ID   = 20663
ELEMENT_SET_NO = 999
REV_AT_EPOCH   = 92264
BSTAR          = .39369E-3
MEAN_MOTION_DOT = .5475E-4
MEAN_MOTION_DDOT = 0

CCSDS_OMM_VERS = 2.0
CREATION_DATE  = 
ORIGINATOR     = 

OBJECT_NAME    = SL-6 R/B(2)
OBJECT_ID      = 1990-055D
CENTER_NAME    = EARTH
REF_FRAME      = TEME
TIME_SYSTEM    = UTC
MEAN_ELEMENT_THEORY = SGP/SGP4

EPOCH          = 2025-12-08T20:12:40.012128
MEAN_MOTION    = 15.03051444
ECCENTRICITY   = .0012331
INCLINATION    = 62.7824
RA_OF_ASC_NODE = 202.6592
ARG_OF_PERICENTER = 305.8644
MEAN_ANOMALY   = 54.1309

EPHEMERIS_TYPE = 0
CLASSIFICATION_TYPE = U
NORAD_CAT_ID   = 20666
ELEMENT_SET_NO = 999
REV_AT_EPOCH   = 92453
BSTAR          = .28438E-3
MEAN_MOTION_DOT = .3661E-4
MEAN_MOTION_DDOT = 0

CCSDS_OMM_VERS = 2.0
CREATION_DATE  = 
ORIGINATOR     = 

OBJECT_NAME    = SL-8 R/B
OBJECT_ID      = 1990-078B
CENTER_NAME    = EARTH
REF_FRAME      = TEME
TIME_SYSTEM    = UTC
MEAN_ELEMENT_THEORY = SGP/SGP4

EPOCH          = 2025-12-08T16:34:20.078688
MEAN_MOTION    = 14.85687518
ECCENTRICITY   = .0373276
INCLINATION    = 82.9051
RA_OF_ASC_NODE = 332.9340
ARG_OF_PERICENTER = 319.5369
MEAN_ANOMALY   = 37.8620

EPHEMERIS_TYPE = 0
CLASSIFICATION_TYPE = U
NORAD_CAT_ID   = 20775
ELEMENT_SET_NO = 999
REV_AT_EPOCH   = 79577
BSTAR          = .89832E-3
MEAN_MOTION_DOT = .28999E-3
MEAN_MOTION_DDOT = 0

CCSDS_OMM_VERS = 2.0
CREATION_DATE  = 
ORIGINATOR     = 

OBJECT_NAME    = SL-8 R/B
OBJECT_ID      = 1991-006B
CENTER_NAME    = EARTH
REF_FRAME      = TEME
TIME_SYSTEM    = UTC
MEAN_ELEMENT_THEORY = SGP/SGP4

EPOCH          = 2025-12-08T20:16:12.071424
MEAN_MOTION    = 13.77489444
ECCENTRICITY   = .0021346
INCLINATION    = 82.9431
RA_OF_ASC_NODE = 237.6099
ARG_OF_PERICENTER = 291.3821
MEAN_ANOMALY   = 209.8492

EPHEMERIS_TYPE = 0
CLASSIFICATION_TYPE = U
NORAD_CAT_ID   = 21088
ELEMENT_SET_NO = 999
REV_AT_EPOCH   = 75156
BSTAR          = .96058E-4
MEAN_MOTION_DOT = .111E-5
MEAN_MOTION_DDOT = 0

CCSDS_OMM_VERS = 2.0
CREATION_DATE  = 
ORIGINATOR     = 

OBJECT_NAME    = OKEAN-3
OBJECT_ID      = 1991-039A
CENTER_NAME    = EARTH
REF_FRAME      = TEME
TIME_SYSTEM    = UTC
MEAN_ELEMENT_THEORY = SGP/SGP4

EPOCH          = 2025-12-08T16:34:24.515328
MEAN_MOTION    = 15.04077412
ECCENTRICITY   = .0012831
INCLINATION    = 82.5170
RA_OF_ASC_NODE = 64.9665
ARG_OF_PERICENTER = 281.3724
MEAN_ANOMALY   = 78.6061

EPHEMERIS_TYPE = 0
CLASSIFICATION_TYPE = U
NORAD_CAT_ID   = 21397
ELEMENT_SET_NO = 999
REV_AT_EPOCH   = 85135
BSTAR          = .38763E-3
MEAN_MOTION_DOT = .5401E-4
MEAN_MOTION_DDOT = 0

CCSDS_OMM_VERS = 2.0
CREATION_DATE  = 
ORIGINATOR     = 

OBJECT_NAME    = COSMOS 2151
OBJECT_ID      = 1991-042A
CENTER_NAME    = EARTH
REF_FRAME      = TEME
TIME_SYSTEM    = UTC
MEAN_ELEMENT_THEORY = SGP/SGP4

EPOCH          = 2025-12-08T19:40:49.838592
MEAN_MOTION    = 14.99666638
ECCENTRICITY   = .0012903
INCLINATION    = 82.4960
RA_OF_ASC_NODE = 171.2807
ARG_OF_PERICENTER = 12.6602
MEAN_ANOMALY   = 347.4943

EPHEMERIS_TYPE = 0
CLASSIFICATION_TYPE = U
NORAD_CAT_ID   = 21422
ELEMENT_SET_NO = 999
REV_AT_EPOCH   = 84957
BSTAR          = .28041E-3
MEAN_MOTION_DOT = .3487E-4
MEAN_MOTION_DDOT = 0

