DELTA 2 R/B(1)          
1 20453U 90008B   25342.55073502  .00054430  00000+0  88443-3 0  9999
2 20453  35.6070  47.5750 0111717 140.3529 220.5435 15.44741263911983
COSMOS 2058             
1 20465U 90010A   25342.84933027  .00007856  00000+0  47611-3 0  9996
2 20465  82.4654 136.8573 0008252 289.7308  70.3031 15.10412767928529
SL-14 R/B               
1 20466U 90010B   25342.76581905  .00000873  00000+0  10318-3 0  9998
2 20466  82.5019 352.7796 0018487 237.0625 122.8812 14.83466279915006
SL-14 R/B               
1 20511U 90018B   25342.62872562  .00000996  00000+0  12224-3 0  9998
2 20511  82.5206 308.2071 0017338  36.2844 323.9542 14.82040471909090
HST                     
1 20580U 90037B   25342.28548427  .00010003  00000+0  34811-3 0  9993
2 20580  28.4697 302.8053 0001895 185.8337 174.2236 15.27955239759310
SL-16 R/B               
1 20625U 90046B   25342.78713551  .00000110  00000+0  81186-4 0  9996
2 20625  70.9987 128.8220 0011858  80.6549 279.5913 14.15001111835530
COSMOS 2084             
1 20663U 90055A   25342.84721811  .00005475  00000+0  39369-3 0  9997
2 20663  62.7911 285.2559 0032365 174.2415 185.9064 15.04982052922646
SL-6 R/B(2)             
1 20666U 90055D   25342.84212977  .00003661  00000+0  28438-3 0  9998
2 20666  62.7824 202.6592 0012331 305.8644  54.1309 15.03051444924539
SL-8 R/B                
1 20775U 90078B   25342.69051017  .00028999  00000+0  89832-3 0  9999
2 20775  82.9051 332.9340 0373276 319.5369  37.8620 14.85687518795770
SL-8 R/B                
1 21088U 91006B   25342.84458416  .00000111  00000+0  96058-4 0  9995
2 21088  82.9431 237.6099 0021346 291.3821 209.8492 13.77489444751565
OKEAN-3                 
1 21397U 91039A   25342.69056152  .00005401  00000+0  38763-3 0  9993
2 21397  82.5170  64.9665 0012831 281.3724  78.6061 15.04077412851356
COSMOS 2151             
1 21422U 91042A   25342.82002128  .00003487  00000+0  28041-3 0  9995
2 21422  82.4960 171.2807 0012903  12.6602 347.4943 14.99666638849575
